{"type": "FeatureCollection", "features": [{"type": "Feature", "properties": {"norad_id": 50032, "name": "COSMOS 1408 DEB", "group": "cosmos-1408-debris", "lat": 35.72662897794839, "lon": -135.97517255234968, "alt_km": 417.4341783446707, "timestamp": "2025-12-21T14:40:48.187074+00:00", "meta": {"OBJECT_NAME": "COSMOS 1408 DEB", "OBJECT_ID": "1982-092RU", "EPOCH": "2025-12-21T04:44:15.700416", "MEAN_MOTION": 15.45771995, "ECCENTRICITY": 0.00160807, "INCLINATION": 82.5635, "RA_OF_ASC_NODE": 49.8404, "ARG_OF_PERICENTER": 177.0061, "MEAN_ANOMALY": 183.1287, "EPHEMERIS_TYPE": 0, "CLASSIFICATION_TYPE": "U", "NORAD_CAT_ID": 50032, "ELEMENT_SET_NO": 999, "REV_AT_EPOCH": 22734, "BSTAR": 7.6660607e-05, "MEAN_MOTION_DOT": 3.769e-05, "MEAN_MOTION_DDOT": 0}, "tle": {"line1": "1 50032U 82092RU  25355.19740394  .00003769  00000+0  76661-4 0  9992", "line2": "2 50032  82.5635  49.8404 0016080 177.0061 183.1287 15.45771995227348"}}, "geometry": {"type": "Point", "coordinates": [-135.97517255234968, 35.72662897794839]}}, {"type": "Feature", "properties": {"norad_id": 50058, "name": "COSMOS 1408 DEB", "group": "cosmos-1408-debris", "lat": -39.53028896217545, "lon": -113.80007803945396, "alt_km": 390.5179565009157, "timestamp": "2025-12-21T14:40:48.187095+00:00", "meta": {"OBJECT_NAME": "COSMOS 1408 DEB", "OBJECT_ID": "1982-092SW", "EPOCH": "2025-12-21T04:32:04.588800", "MEAN_MOTION": 15.64578574, "ECCENTRICITY": 0.00161275, "INCLINATION": 82.6126, "RA_OF_ASC_NODE": 60.4962, "ARG_OF_PERICENTER": 70.3199, "MEAN_ANOMALY": 289.9799, "EPHEMERIS_TYPE": 0, "CLASSIFICATION_TYPE": "U", "NORAD_CAT_ID": 50058, "ELEMENT_SET_NO": 999, "REV_AT_EPOCH": 22936, "BSTAR": 0.00024667562, "MEAN_MOTION_DOT": 0.00024013, "MEAN_MOTION_DDOT": 0}, "tle": {"line1": "1 50058U 82092SW  25355.18894200  .00024013  00000+0  24668-3 0  9999", "line2": "2 50058  82.6126  60.4962 0016127  70.3199 289.9799 15.64578574229365"}}, "geometry": {"type": "Point", "coordinates": [-113.80007803945396, -39.53028896217545]}}, {"type": "Feature", "properties": {"norad_id": 50404, "name": "COSMOS 1408 DEB", "group": "cosmos-1408-debris", "lat": 0.5522970208168895, "lon": 25.866269780354486, "alt_km": 409.42473581153627, "timestamp": "2025-12-21T14:40:48.187108+00:00", "meta": {"OBJECT_NAME": "COSMOS 1408 DEB", "OBJECT_ID": "1982-092ADS", "EPOCH": "2025-12-21T01:12:46.849536", "MEAN_MOTION": 15.14992545, "ECCENTRICITY": 0.01687907, "INCLINATION": 82.2052, "RA_OF_ASC_NODE": 206.5174, "ARG_OF_PERICENTER": 170.4182, "MEAN_ANOMALY": 190.0342, "EPHEMERIS_TYPE": 0, "CLASSIFICATION_TYPE": "U", "NORAD_CAT_ID": 50404, "ELEMENT_SET_NO": 999, "REV_AT_EPOCH": 21319, "BSTAR": 0.0022156953, "MEAN_MOTION_DOT": 0.00059772, "MEAN_MOTION_DDOT": 0}, "tle": {"line1": "1 50404U 82092ADS 25355.05054224  .00059772  00000+0  22157-2 0  9994", "line2": "2 50404  82.2052 206.5174 0168790 170.4182 190.0342 15.14992545213193"}}, "geometry": {"type": "Point", "coordinates": [25.866269780354486, 0.5522970208168895]}}, {"type": "Feature", "properties": {"norad_id": 50621, "name": "COSMOS 1408 DEB", "group": "cosmos-1408-debris", "lat": -2.7766813284455107, "lon": 64.57986661546376, "alt_km": 410.3156686925968, "timestamp": "2025-12-21T14:40:48.187120+00:00", "meta": {"OBJECT_NAME": "COSMOS 1408 DEB", "OBJECT_ID": "1982-092ALR", "EPOCH": "2025-12-21T05:26:16.339200", "MEAN_MOTION": 15.57069588, "ECCENTRICITY": 0.00290954, "INCLINATION": 82.5697, "RA_OF_ASC_NODE": 65.3437, "ARG_OF_PERICENTER": 121.8542, "MEAN_ANOMALY": 238.5551, "EPHEMERIS_TYPE": 0, "CLASSIFICATION_TYPE": "U", "NORAD_CAT_ID": 50621, "ELEMENT_SET_NO": 999, "REV_AT_EPOCH": 22382, "BSTAR": 0.00029678519, "MEAN_MOTION_DOT": 0.00021958, "MEAN_MOTION_DDOT": 0}, "tle": {"line1": "1 50621U 82092ALR 25355.22657800  .00021958  00000+0  29679-3 0  9995", "line2": "2 50621  82.5697  65.3437 0029095 121.8542 238.5551 15.57069588223829"}}, "geometry": {"type": "Point", "coordinates": [64.57986661546376, -2.7766813284455107]}}]}